#aV2019 10 28  0  0  0.00000000     288 DD+AD WGS84 FIT  NGA
## 2077  86400.00000000   300.00000000 58784 0.0000000000000
+   32     1  2  3  4  5  6  7  8  9 10 11 12 13 14 15 16 17
+         18 19 20 21 22 23 24 25 26 27 28 29 30 31 32  0  0
+          0  0  0  0  0  0  0  0  0  0  0  0  0  0  0  0  0
+          0  0  0  0  0  0  0  0  0  0  0  0  0  0  0  0  0
+          0  0  0  0  0  0  0  0  0  0  0  0  0  0  0  0  0
++         2  2  2  2  2  2  2  2  2  2  2  2  2  2  2  2  2
++         2  2  2  2  2  2  2  2  2  2  2  2  2  2  2  0  0
++         0  0  0  0  0  0  0  0  0  0  0  0  0  0  0  0  0
++         0  0  0  0  0  0  0  0  0  0  0  0  0  0  0  0  0
++         0  0  0  0  0  0  0  0  0  0  0  0  0  0  0  0  0
%c cc cc ccc ccc cccc cccc cccc cccc ccccc ccccc ccccc ccccc
%c cc cc ccc ccc cccc cccc cccc cccc ccccc ccccc ccccc ccccc
%f  0.0000000  0.000000000  0.00000000000  0.000000000000000
%f  0.0000000  0.000000000  0.00000000000  0.000000000000000
%i    0    0    0    0      0      0      0      0         0
%i    0    0    0    0      0      0      0      0         0
/*      NGA, ST. LOUIS,MO.                                  
/*   EPHEMERIS COMPUTED FROM 2 DAYS OF DATA                 
/*   EPOCHA v5 SMOOTHER                                     
/*   G1762 IERS2010 SATAF SATAPC                            
*  2019 10 28 22 30  0.00000000
P  1 -20115.569051 -11060.789969  13426.944998   -178.563771                    
V  1  -9302.934671 -14600.592007 -25272.329885     -0.129695                    
P  2  13370.995602  22129.567296   6969.355024   -335.471598                    
V  2  -7297.021009  -4209.965381  29941.187053     -0.077932                    
P  3 -16010.337356    550.810144  21110.682241    -28.614377                    
V  3   9309.181530 -25304.163019   7784.484774     -0.052855                    
P  4 -20234.585444  11381.732066 -12885.060156     -3.677195                    
V  4 -16531.177546   -432.683206  25582.094227     -0.031843                    
P  5   6562.681203  18781.262036 -17642.320795     -2.812265                    
V  5  -9412.821644  20230.647775  18372.833591     -0.004107                    
P  6   1336.490534  20275.047946  17135.749501   -105.833924                    
V  6 -14589.972462 -16051.443549  20206.448100     -0.124568                    
P  7 -15123.707761   4814.869912 -21078.880642   -136.955634                    
V  7 -16360.073921 -21950.254894   6167.693403     -0.080609                    
P  8 -21415.596734  -6551.870883 -14408.204680    -11.493513                    
V  8  17740.481395  -4636.798974 -23991.566766     -0.012960                    
P  9 -24905.801489   7711.372541  -5134.133869    -68.979835                    
V  9  -6853.365654  -1911.018805  30671.906381     -0.099719                    
P 10  11333.340074 -23734.787641  -2631.337792   -112.693529                    
V 10   1446.273251   4266.640338 -31725.870915     -0.151342                    
P 11 -24689.443023  -7528.007435   5024.943191   -464.455306                    
V 11  -4436.583800  -7205.066323 -29906.911145      0.111935                    
P 12  13627.210443   5512.088971  21901.627349    189.283823                    
V 12 -12092.273686  25563.276806   1237.089814     -0.039325                    
P 13  13222.995052  12942.596061 -19200.330872    -36.154940                    
V 13 -24054.214436   1675.067004 -15463.392435      0.022436                    
P 14   1181.703697 -15423.252584  21907.843962    -53.589372                    
V 14  27016.029326  -1477.733476  -2716.265969      0.021060                    
P 15  22581.528824   4952.331087 -13701.481062   -276.599531                    
V 15 -15728.359530   6593.837027 -23662.971364      0.026960                    
P 16  -2504.521955 -20253.330142 -16942.380814    -87.738540                    
V 16  11001.684456 -18285.071888  20886.349783     -0.036726                    
P 17 -12417.950953  13962.374856  19262.857220    152.734622                    
V 17 -23537.241777   1129.206932 -16429.465606      0.070265                    
P 18 -19775.459876 -16834.504250   5293.671826     96.336833                    
V 18  -2693.045923  -7416.841278 -30633.956203      0.026384                    
P 19  -5287.519035  14479.104912  21337.661835   -247.372894                    
V 19 -27723.915815    703.868220  -7226.161898      0.052148                    
P 20  14414.703970 -18343.351165 -12621.529628    527.325413                    
V 20   -965.574366  16281.028503 -25157.526678      0.000955                    
P 21  11487.542278  -9746.681391 -21087.007954    -94.923458                    
V 21  19052.480261  21464.666495    635.600942      0.060989                    
P 22 -14213.016556  -7858.025190  21242.084201   -767.628224                    
V 22   8260.081731 -25282.025686  -3766.989580     -0.029060                    
P 23 -26232.509919    242.769335   5663.739893   -158.781531                    
V 23   6128.746733  -3943.027019  30034.327219      0.021859                    
P 24  21215.906355  11842.753827  10961.999012     -4.128543                    
V 24   7230.886917  12423.147480 -26645.844515     -0.005568                    
P 25  16956.083789 -10501.285016  17195.456577    -16.349439                    
V 25  -6634.818906  21403.919092  19625.356683     -0.006758                    
P 26   3051.528462 -25049.837060  -7974.568766     71.922737                    
V 26   6415.526390  -8491.954984  29379.136324      0.084849                    
P 27 -10388.903897 -12760.750766 -21029.222754   -102.358383                    
V 27  25955.848769  -4379.113200  -9922.661214     -0.120849                    
P 28 -12584.732777  23408.813450   -918.560003    757.315220                    
V 28  -1048.296841  -2661.734717 -32073.638585     -0.015945                    
P 29  25918.514204  -4529.232709  -3761.237764     58.928588                    
V 29   4859.291555   1586.590931  31818.578328     -0.100712                    
P 30  -6852.597359  15678.676326 -20236.759774    -71.677476                    
V 30 -16254.165491 -20190.585520 -10315.568160     -0.083092                    
P 31  -2370.949741 -21260.202924  15427.596218      0.547357                    
V 31  13702.928677  14487.387519  22496.533629     -0.025464                    
P 32  11623.659083 -15023.843974  18571.714625    106.907634                    
V 32  23482.706581  -2005.658119 -16498.744574      0.125795                    
EOF
